LEMUR-2-GREENBERG       
1 42837U 17042N   26068.46200528  .00019778  00000+0  72539-3 0  9997
2 42837  97.3781 249.8007 0009157   4.0119 356.1192 15.27971352473146
STARLINK-34206          
1 66098U 25236N   26068.38170772  .00027172  00000+0  92635-3 0  9990
2 66098  53.1580 105.5726 0001101  76.4635 283.6489 15.30194554 22880
